0 CZ-4C R/B
1 39242U 13046D   13280.84744342 -.00000061  00000-0  36700-4 0   566
2 39242 063.4665 121.6738 0152951 023.7191 337.0800 13.69664934  4934
0 CZ-4C R/B
1 39242U 13046D   13282.89174314 -.00000049  00000-0  49575-4 0   570
2 39242 063.4663 116.2102 0153045 023.6580 337.1397 13.69665268  5218
0 CZ-4C R/B
1 39242U 13046D   13287.56442857 -.00000072  00000-0  25638-4 0   591
2 39242 063.4661 103.7208 0153459 023.5399 337.2564 13.69665517  5854
0 CZ-4C R/B
1 39242U 13046D   13289.90077052 -.00000046  00000-0  52182-4 0   609
2 39242 063.4659 097.4765 0153655 023.4863 337.3098 13.69665885  6178
0 CZ-4C R/B
1 39242U 13046D   13292.16410087 -.00000027  00000-0  72060-4 0   617
2 39242 063.4656 091.4268 0153872 023.4168 337.3778 13.69666338  6489
0 CZ-4C R/B
1 39242U 13046D   13294.20839920 -.00000034  00000-0  65357-4 0   625
2 39242 063.4654 085.9620 0154071 023.3671 337.4276 13.69666601  6765
